[Satellite]
VERSION=1.1
NAME=AEROCUBE 5A
NICKNAME=AEROCUBE 5A
TLE1=1 39465U 13072D   19317.46012259  .00003228  00000-0  28981-3 0  9996
TLE2=2 39465 120.4963  98.5166 0275090  25.1601 336.2581 14.74367099  9341
STATUS=0
